ONEWEB-0436             
1 51633U 22012M   26153.10091435  .00000065  00000+0  13478-3 0  9991
2 51633  87.9150   8.8454 0001616  82.5672 277.5643 13.17650280211699
ONEWEB-0438             
1 51634U 22012N   26153.13657870  .00000709  00000+0  19958-2 0  9999
2 51634  87.8845  39.2777 0002001  82.1597 277.9758 13.10373492207378
ONEWEB-0439             
1 51635U 22012P   26153.13989640  .00000633  00000+0  17771-2 0  9990
2 51635  87.8841  39.2649 0001863  80.1886 279.9451 13.10372334207351
ONEWEB-0442             
1 51636U 22012Q   26153.09332337  .00000068  00000+0  14235-3 0  9996
2 51636  87.9142   8.8809 0002391  90.0257 270.1149 13.17648341211685
ONEWEB-0443             
1 51637U 22012R   26153.11272389  .00000147  00000+0  34544-3 0  9993
2 51637  87.9143   8.8780 0001967  75.9006 284.2344 13.17648473211732
ONEWEB-0444             
1 51638U 22012S   26153.12993901  .00000678  00000+0  19057-2 0  9995
2 51638  87.8844  39.2655 0001916  76.1374 283.9966 13.10374735207364
ONEWEB-0445             
1 51639U 22012T   26153.15150672  .00000117  00000+0  29785-3 0  9997
2 51639  87.8848  39.2480 0001742  88.0453 272.0874 13.10370502207378
ONEWEB-0446             
1 51640U 22012U   26153.12827380  .00000650  00000+0  18245-2 0  9993
2 51640  87.8850  39.2817 0001771  86.3194 273.8135 13.10376127207358
ONEWEB-0448             
1 51641U 22012V   26153.13326260  .00000695  00000+0  19533-2 0  9996
2 51641  87.8844  39.2784 0001842  80.0266 280.1069 13.10373064207326
ONEWEB-0449             
1 51642U 22012W   26153.13823939  .00000677  00000+0  19034-2 0  9998
2 51642  87.8842  39.2625 0002298  83.4784 276.6605 13.10372798207337
ONEWEB-0451             
1 51643U 22012X   26153.09755176  .00000037  00000+0  61897-4 0  9997
2 51643  87.9154   8.8430 0002078  85.0701 275.0668 13.17649602211676
ONEWEB-0452             
1 51644U 22012Y   26153.09585468  .00000095  00000+0  21036-3 0  9997
2 51644  87.9142   8.8817 0002048  79.3922 280.7440 13.17650346211680
ONEWEB-0456             
1 51646U 22012AA  26153.14817955  .00000319  00000+0  87876-3 0  9997
2 51646  87.8854  39.2461 0001661  78.6514 281.4800 13.10375894207377
ONEWEB-0457             
1 51647U 22012AB  26153.12480259  .00000548  00000+0  15341-2 0  9990
2 51647  87.8848  39.2708 0001998  91.8165 268.3191 13.10374212207377
ONEWEB-0458             
1 51648U 22012AC  26153.14660144 -.00010351  00000+0 -29750-1 0  9999
2 51648  87.8849  39.2530 0001482  85.7908 274.3389 13.10308809207338
ONEWEB-0461             
1 51649U 22012AD  26153.19371683  .00000035  00000+0  57844-4 0  9996
2 51649  87.9151   8.8384 0001842  89.6840 270.4503 13.17650869211910
