[{"OBJECT_NAME":"ONEWEB-0436","OBJECT_ID":"2022-012M","EPOCH":"2026-06-02T02:25:18.999840","MEAN_MOTION":13.1765028,"ECCENTRICITY":0.0001616,"INCLINATION":87.915,"RA_OF_ASC_NODE":8.8454,"ARG_OF_PERICENTER":82.5672,"MEAN_ANOMALY":277.5643,"EPHEMERIS_TYPE":0,"CLASSIFICATION_TYPE":"U","NORAD_CAT_ID":51633,"ELEMENT_SET_NO":999,"REV_AT_EPOCH":21169,"BSTAR":0.00013478,"MEAN_MOTION_DOT":6.5e-07,"MEAN_MOTION_DDOT":0.0},{"OBJECT_NAME":"ONEWEB-0438","OBJECT_ID":"2022-012N","EPOCH":"2026-06-02T03:16:40.399680","MEAN_MOTION":13.10373492,"ECCENTRICITY":0.0002001,"INCLINATION":87.8845,"RA_OF_ASC_NODE":39.2777,"ARG_OF_PERICENTER":82.1597,"MEAN_ANOMALY":277.9758,"EPHEMERIS_TYPE":0,"CLASSIFICATION_TYPE":"U","NORAD_CAT_ID":51634,"ELEMENT_SET_NO":999,"REV_AT_EPOCH":20737,"BSTAR":0.0019958000000000003,"MEAN_MOTION_DOT":7.09e-06,"MEAN_MOTION_DDOT":0.0},{"OBJECT_NAME":"ONEWEB-0439","OBJECT_ID":"2022-012P","EPOCH":"2026-06-02T03:21:27.048960","MEAN_MOTION":13.10372334,"ECCENTRICITY":0.0001863,"INCLINATION":87.8841,"RA_OF_ASC_NODE":39.2649,"ARG_OF_PERICENTER":80.1886,"MEAN_ANOMALY":279.9451,"EPHEMERIS_TYPE":0,"CLASSIFICATION_TYPE":"U","NORAD_CAT_ID":51635,"ELEMENT_SET_NO":999,"REV_AT_EPOCH":20735,"BSTAR":0.0017771000000000002,"MEAN_MOTION_DOT":6.33e-06,"MEAN_MOTION_DDOT":0.0},{"OBJECT_NAME":"ONEWEB-0442","OBJECT_ID":"2022-012Q","EPOCH":"2026-06-02T02:14:23.139168","MEAN_MOTION":13.17648341,"ECCENTRICITY":0.0002391,"INCLINATION":87.9142,"RA_OF_ASC_NODE":8.8809,"ARG_OF_PERICENTER":90.0257,"MEAN_ANOMALY":270.1149,"EPHEMERIS_TYPE":0,"CLASSIFICATION_TYPE":"U","NORAD_CAT_ID":51636,"ELEMENT_SET_NO":999,"REV_AT_EPOCH":21168,"BSTAR":0.00014235000000000002,"MEAN_MOTION_DOT":6.8e-07,"MEAN_MOTION_DDOT":0.0},{"OBJECT_NAME":"ONEWEB-0443","OBJECT_ID":"2022-012R","EPOCH":"2026-06-02T02:42:19.344096","MEAN_MOTION":13.17648473,"ECCENTRICITY":0.0001967,"INCLINATION":87.9143,"RA_OF_ASC_NODE":8.878,"ARG_OF_PERICENTER":75.9006,"MEAN_ANOMALY":284.2344,"EPHEMERIS_TYPE":0,"CLASSIFICATION_TYPE":"U","NORAD_CAT_ID":51637,"ELEMENT_SET_NO":999,"REV_AT_EPOCH":21173,"BSTAR":0.00034544,"MEAN_MOTION_DOT":1.47e-06,"MEAN_MOTION_DDOT":0.0},{"OBJECT_NAME":"ONEWEB-0444","OBJECT_ID":"2022-012S","EPOCH":"2026-06-02T03:07:06.730464","MEAN_MOTION":13.10374735,"ECCENTRICITY":0.0001916,"INCLINATION":87.8844,"RA_OF_ASC_NODE":39.2655,"ARG_OF_PERICENTER":76.1374,"MEAN_ANOMALY":283.9966,"EPHEMERIS_TYPE":0,"CLASSIFICATION_TYPE":"U","NORAD_CAT_ID":51638,"ELEMENT_SET_NO":999,"REV_AT_EPOCH":20736,"BSTAR":0.0019057,"MEAN_MOTION_DOT":6.78e-06,"MEAN_MOTION_DDOT":0.0},{"OBJECT_NAME":"ONEWEB-0445","OBJECT_ID":"2022-012T","EPOCH":"2026-06-02T03:38:10.180608","MEAN_MOTION":13.10370502,"ECCENTRICITY":0.0001742,"INCLINATION":87.8848,"RA_OF_ASC_NODE":39.248,"ARG_OF_PERICENTER":88.0453,"MEAN_ANOMALY":272.0874,"EPHEMERIS_TYPE":0,"CLASSIFICATION_TYPE":"U","NORAD_CAT_ID":51639,"ELEMENT_SET_NO":999,"REV_AT_EPOCH":20737,"BSTAR":0.00029785,"MEAN_MOTION_DOT":1.17e-06,"MEAN_MOTION_DDOT":0.0},{"OBJECT_NAME":"ONEWEB-0446","OBJECT_ID":"2022-012U","EPOCH":"2026-06-02T03:04:42.856320","MEAN_MOTION":13.10376127,"ECCENTRICITY":0.0001771,"INCLINATION":87.885,"RA_OF_ASC_NODE":39.2817,"ARG_OF_PERICENTER":86.3194,"MEAN_ANOMALY":273.8135,"EPHEMERIS_TYPE":0,"CLASSIFICATION_TYPE":"U","NORAD_CAT_ID":51640,"ELEMENT_SET_NO":999,"REV_AT_EPOCH":20735,"BSTAR":0.0018245,"MEAN_MOTION_DOT":6.5e-06,"MEAN_MOTION_DDOT":0.0},{"OBJECT_NAME":"ONEWEB-0448","OBJECT_ID":"2022-012V","EPOCH":"2026-06-02T03:11:53.888640","MEAN_MOTION":13.10373064,"ECCENTRICITY":0.0001842,"INCLINATION":87.8844,"RA_OF_ASC_NODE":39.2784,"ARG_OF_PERICENTER":80.0266,"MEAN_ANOMALY":280.1069,"EPHEMERIS_TYPE":0,"CLASSIFICATION_TYPE":"U","NORAD_CAT_ID":51641,"ELEMENT_SET_NO":999,"REV_AT_EPOCH":20732,"BSTAR":0.0019533000000000003,"MEAN_MOTION_DOT":6.95e-06,"MEAN_MOTION_DDOT":0.0},{"OBJECT_NAME":"ONEWEB-0449","OBJECT_ID":"2022-012W","EPOCH":"2026-06-02T03:19:03.883296","MEAN_MOTION":13.10372798,"ECCENTRICITY":0.0002298,"INCLINATION":87.8842,"RA_OF_ASC_NODE":39.2625,"ARG_OF_PERICENTER":83.4784,"MEAN_ANOMALY":276.6605,"EPHEMERIS_TYPE":0,"CLASSIFICATION_TYPE":"U","NORAD_CAT_ID":51642,"ELEMENT_SET_NO":999,"REV_AT_EPOCH":20733,"BSTAR":0.0019034000000000002,"MEAN_MOTION_DOT":6.77e-06,"MEAN_MOTION_DDOT":0.0},{"OBJECT_NAME":"ONEWEB-0451","OBJECT_ID":"2022-012X","EPOCH":"2026-06-02T02:20:28.472064","MEAN_MOTION":13.17649602,"ECCENTRICITY":0.0002078,"INCLINATION":87.9154,"RA_OF_ASC_NODE":8.843,"ARG_OF_PERICENTER":85.0701,"MEAN_ANOMALY":275.0668,"EPHEMERIS_TYPE":0,"CLASSIFICATION_TYPE":"U","NORAD_CAT_ID":51643,"ELEMENT_SET_NO":999,"REV_AT_EPOCH":21167,"BSTAR":6.189700000000001e-05,"MEAN_MOTION_DOT":3.7e-07,"MEAN_MOTION_DDOT":0.0},{"OBJECT_NAME":"ONEWEB-0452","OBJECT_ID":"2022-012Y","EPOCH":"2026-06-02T02:18:01.844352","MEAN_MOTION":13.17650346,"ECCENTRICITY":0.0002048,"INCLINATION":87.9142,"RA_OF_ASC_NODE":8.8817,"ARG_OF_PERICENTER":79.3922,"MEAN_ANOMALY":280.744,"EPHEMERIS_TYPE":0,"CLASSIFICATION_TYPE":"U","NORAD_CAT_ID":51644,"ELEMENT_SET_NO":999,"REV_AT_EPOCH":21168,"BSTAR":0.00021035999999999998,"MEAN_MOTION_DOT":9.5e-07,"MEAN_MOTION_DDOT":0.0},{"OBJECT_NAME":"ONEWEB-0456","OBJECT_ID":"2022-012AA","EPOCH":"2026-06-02T03:33:22.713120","MEAN_MOTION":13.10375894,"ECCENTRICITY":0.0001661,"INCLINATION":87.8854,"RA_OF_ASC_NODE":39.2461,"ARG_OF_PERICENTER":78.6514,"MEAN_ANOMALY":281.48,"EPHEMERIS_TYPE":0,"CLASSIFICATION_TYPE":"U","NORAD_CAT_ID":51646,"ELEMENT_SET_NO":999,"REV_AT_EPOCH":20737,"BSTAR":0.00087876,"MEAN_MOTION_DOT":3.19e-06,"MEAN_MOTION_DDOT":0.0},{"OBJECT_NAME":"ONEWEB-0457","OBJECT_ID":"2022-012AB","EPOCH":"2026-06-02T02:59:42.943776","MEAN_MOTION":13.10374212,"ECCENTRICITY":0.0001998,"INCLINATION":87.8848,"RA_OF_ASC_NODE":39.2708,"ARG_OF_PERICENTER":91.8165,"MEAN_ANOMALY":268.3191,"EPHEMERIS_TYPE":0,"CLASSIFICATION_TYPE":"U","NORAD_CAT_ID":51647,"ELEMENT_SET_NO":999,"REV_AT_EPOCH":20737,"BSTAR":0.0015341,"MEAN_MOTION_DOT":5.48e-06,"MEAN_MOTION_DDOT":0.0},{"OBJECT_NAME":"ONEWEB-0458","OBJECT_ID":"2022-012AC","EPOCH":"2026-06-02T03:31:06.364416","MEAN_MOTION":13.10308809,"ECCENTRICITY":0.0001482,"INCLINATION":87.8849,"RA_OF_ASC_NODE":39.253,"ARG_OF_PERICENTER":85.7908,"MEAN_ANOMALY":274.3389,"EPHEMERIS_TYPE":0,"CLASSIFICATION_TYPE":"U","NORAD_CAT_ID":51648,"ELEMENT_SET_NO":999,"REV_AT_EPOCH":20733,"BSTAR":-0.02975,"MEAN_MOTION_DOT":-0.00010351,"MEAN_MOTION_DDOT":0.0},{"OBJECT_NAME":"ONEWEB-0461","OBJECT_ID":"2022-012AD","EPOCH":"2026-06-02T04:38:57.134112","MEAN_MOTION":13.17650869,"ECCENTRICITY":0.0001842,"INCLINATION":87.9151,"RA_OF_ASC_NODE":8.8384,"ARG_OF_PERICENTER":89.684,"MEAN_ANOMALY":270.4503,"EPHEMERIS_TYPE":0,"CLASSIFICATION_TYPE":"U","NORAD_CAT_ID":51649,"ELEMENT_SET_NO":999,"REV_AT_EPOCH":21191,"BSTAR":5.7844e-05,"MEAN_MOTION_DOT":3.5e-07,"MEAN_MOTION_DDOT":0.0}]